ONEWEB-0435             
1 51632U 22012L   26027.16330353  .00000660  00000+0  18543-2 0  9999
2 51632  87.8754  64.3894 0001419  90.0296 270.0994 13.10373819190842
ONEWEB-0436             
1 51633U 22012M   26027.04686529  .00000037  00000+0  61476-4 0  9999
2 51633  87.9095  33.8820 0001607  91.0329 269.0987 13.17651246195091
ONEWEB-0438             
1 51634U 22012N   26027.14669289  .00000166  00000+0  44019-3 0  9991
2 51634  87.8763  64.3942 0002130  94.7814 265.3557 13.10377666190875
ONEWEB-0439             
1 51635U 22012P   26027.15001805  .00000299  00000+0  82000-3 0  9996
2 51635  87.8764  64.3824 0001803  92.2984 267.8349 13.10376573190853
ONEWEB-0442             
1 51636U 22012Q   26026.96334990  .00000042  00000+0  75214-4 0  9995
2 51636  87.9080  33.9419 0002403  88.6992 271.4415 13.17647434195071
ONEWEB-0443             
1 51637U 22012R   26027.28649800 -.00000026  00000+0 -10011-3 0  9998
2 51637  87.9078  33.8809 0001940  80.9136 279.2215 13.17649693195164
ONEWEB-0444             
1 51638U 22012S   26027.14004413 -.00000194  00000+0 -59228-3 0  9998
2 51638  87.8765  64.3830 0001829  95.2229 264.9107 13.10377448190860
ONEWEB-0445             
1 51639U 22012T   26027.16164809  .00000679  00000+0  19077-2 0  9990
2 51639  87.8769  64.3526 0001822 102.2872 257.8459 13.10376483190873
